YAMAL 401               
1 40345U 14082A   26179.13011207  .00000000  00000+0  00000+0 0  9999
2 40345   0.0148   1.7848 0000937 104.3954 306.8402  1.00268517 42025
ASTRA 2G                
1 40364U 14089A   26179.95248553  .00000161  00000+0  00000+0 0  9991
2 40364   0.0482 340.5769 0004763 100.1393 207.4178  1.00274610 42088
FENGYUN 2G              
1 40367U 14090A   26179.98239250 -.00000295  00000+0  00000+0 0  9992
2 40367   5.6682  72.6781 0003639 149.6814 147.9948  1.00268300 42114
MUOS-3                  
1 40374U 15002A   26179.37354645 -.00000121  00000+0  00000+0 0  9991
2 40374   4.5416  43.5677 0052647 177.7641 174.1536  1.00270803 41697
INMARSAT 5-F2           
1 40384U 15005A   26179.43696303 -.00000274  00000+0  00000+0 0  9991
2 40384   0.0185  11.9453 0000543  71.3802 295.5055  1.00273226 41101
ABS-3A                  
1 40424U 15010A   26179.94623972  .00000000  00000+0  00000+0 0  9996
2 40424   0.0422  57.1176 0001684 351.8255 205.7622  1.00269306 41498
EUTELSAT 115 WEST B     
1 40425U 15010B   26179.85286019 -.00000013  00000+0  00000+0 0  9999
2 40425   0.0133 149.9935 0000312 113.1321 205.9382  1.00268387 41506
EXPRESS-AM7             
1 40505U 15012A   26179.95482553  .00000000  00000+0  00000+0 0  9997
2 40505   0.0276  27.5858 0003241  76.6440 196.5435  1.00269738 41120
BEIDOU-3S IGSO-1S       
1 40549U 15019A   26178.80438100 -.00000163  00000+0  00000+0 0  9995
2 40549  49.1741 295.3331 0039098 191.8080 168.8013  1.00249344 41180
THOR 7                  
1 40613U 15022A   26179.94675973  .00000003  00000+0  00000+0 0  9990
2 40613   0.0256 103.2641 0002699 350.6821 163.2590  1.00272123 40937
TURKMENALEM52E/MONACOSAT
1 40617U 15023A   26179.95716554  .00000115  00000+0  00000+0 0  9991
2 40617   0.0278  73.8741 0003046  15.0406 224.7267  1.00270666 40963
DIRECTV 15              
1 40663U 15026A   26179.92648976 -.00000091  00000+0  00000+0 0  9998
2 40663   0.0147  55.8050 0000436 357.6772  94.2008  1.00273103 40583
SKY MEXICO-1            
1 40664U 15026B   26179.93125645  .00000000  00000+0  00000+0 0  9992
2 40664   0.0286  27.3530 0002663  89.1430  56.9844  1.00269217 40570
METEOSAT-11 (MSG-4)     
1 40732U 15034A   26179.87745642  .00000070  00000+0  00000+0 0  9992
2 40732   3.2298  71.0380 0002229 347.7358 183.4638  1.00266734  7338
STAR ONE C4             
1 40733U 15034B   26179.57657441 -.00000253  00000+0  00000+0 0  9993
2 40733   0.0230 340.8856 0002145  91.8974 341.4568  1.00270447 40121
WGS F7 (USA 263)        
1 40746U 15036A   26179.83890678  .00000000  00000+0  00000+0 0  9998
2 40746   0.0431  58.4314 0000776 128.9795 206.4997  1.00274700 39984
INTELSAT 34 (IS-34)     
1 40874U 15039A   26179.68564581 -.00000274  00000+0  00000+0 0  9991
2 40874   0.0117 356.8645 0000689  30.4825  80.7691  1.00271838 39751
EUTELSAT 8 WEST B       
1 40875U 15039B   26179.94528639 -.00000054  00000+0  00000+0 0  9991
2 40875   0.0643  11.9056 0003729  81.9427 155.4850  1.00271772 39774
GSAT-6                  
1 40880U 15041A   26179.96323225 -.00000150  00000+0  00000+0 0  9993
2 40880   1.9489  82.4496 0003096   7.9105 255.9746  1.00270382 39717
INMARSAT 5-F3           
1 40882U 15042A   26179.62823887  .00000061  00000+0  00000+0 0  9998
2 40882   0.0187  22.9932 0000474 100.3806 199.1051  1.00269137 39681
MUOS-4                  
1 40887U 15044A   26179.92966047 -.00000085  00000+0  00000+0 0  9991
2 40887   4.3510  42.3121 0057707   3.1113 281.2580  1.00272373 39676
TJS-1                   
1 40892U 15046A   26179.90623100 -.00000145  00000+0  00000+0 0  9994
2 40892   0.3528  84.9004 0005929   6.7306 306.6285  1.00270519 39686
EXPRESS-AM8             
1 40895U 15048A   26179.58758112 -.00000100  00000+0  00000+0 0  9996
2 40895   0.0170 333.2146 0000488  69.1617  71.8327  1.00272112 39464
BEIDOU-3S IGSO-2S       
1 40938U 15053A   26179.96992363 -.00000099  00000+0  00000+0 0  9997
2 40938  49.2020 258.6412 0065667 193.1508 268.9330  1.00257545 39471
SKY MUSTER 1 (NBN1A)    
1 40940U 15054A   26179.74779273 -.00000267  00000+0  00000+0 0  9997
2 40940   0.0192 335.5969 0001989 118.1417 232.5562  1.00271165 39371
ARSAT 2                 
1 40941U 15054B   26179.93082311 -.00000213  00000+0  00000+0 0  9990
2 40941   0.0111   3.0798 0002257  84.0040  84.0354  1.00271835 39421
MORELOS 3               
1 40946U 15056A   26179.92449642 -.00000034  00000+0  00000+0 0  9991
2 40946   3.1964  15.3726 0000475   2.5678 118.7964  1.00272712 39400
APSTAR-9                
1 40982U 15059A   26179.97501897 -.00000254  00000+0  00000+0 0  9994
2 40982   0.0277 314.7246 0002725 221.7382 233.6150  1.00273353 39230
TURKSAT 4B              
1 40984U 15060A   26179.95673221  .00000126  00000+0  00000+0 0  9994
2 40984   0.0180  60.0015 0002520  33.9414 217.4754  1.00273208 39219
ZHONGXING-2C            
1 41021U 15063A   26179.96739227 -.00000313  00000+0  00000+0 0  9999
2 41021   0.3042  89.3237 0007640  95.2705 184.1719  1.00273508 39094
GSAT-15                 
1 41028U 15065A   26179.96539892 -.00000246  00000+0  00000+0 0  9999
2 41028   0.0463 262.5293 0004587 175.8219 279.7592  1.00270378 38916
BADR-7 (ARABSAT-6B)     
1 41029U 15065B   26179.59560950  .00000156  00000+0  00000+0 0  9997
2 41029   0.0091 254.1574 0004045 300.4751 322.4618  1.00274016 38883
