OBJECT_NAME,OBJECT_ID,EPOCH,MEAN_MOTION,ECCENTRICITY,INCLINATION,RA_OF_ASC_NODE,ARG_OF_PERICENTER,MEAN_ANOMALY,EPHEMERIS_TYPE,CLASSIFICATION_TYPE,NORAD_CAT_ID,ELEMENT_SET_NO,REV_AT_EPOCH,BSTAR,MEAN_MOTION_DOT,MEAN_MOTION_DDOT
YAMAL 401,2014-082A,2026-06-28T03:07:21.682848,1.00268517,.0000937,0.0148,1.7848,104.3954,306.8402,0,U,40345,999,4202,0,0,0
ASTRA 2G,2014-089A,2026-06-28T22:51:34.749792,1.00274610,.00047636,0.0482,340.5769,100.1393,207.4178,0,U,40364,999,4208,0,.161E-5,0
FENGYUN 2G,2014-090A,2026-06-28T23:34:38.712000,1.00268300,.00036392,5.6682,72.6781,149.6814,147.9948,0,U,40367,999,4211,0,-.295E-5,0
MUOS-3,2015-002A,2026-06-28T08:57:54.413280,1.00270803,.00526472,4.5416,43.5677,177.7641,174.1536,0,U,40374,999,4169,0,-.121E-5,0
INMARSAT 5-F2,2015-005A,2026-06-28T10:29:13.605792,1.00273226,.00005433,0.0185,11.9453,71.3802,295.5055,0,U,40384,999,4110,0,-.274E-5,0
ABS-3A,2015-010A,2026-06-28T22:42:35.111808,1.00269306,.00016841,0.0422,57.1176,351.8255,205.7622,0,U,40424,999,4149,0,0,0
EUTELSAT 115 WEST B,2015-010B,2026-06-28T20:28:07.120416,1.00268387,.00003128,0.0133,149.9935,113.1321,205.9382,0,U,40425,999,4150,0,-.13E-6,0
EXPRESS-AM7,2015-012A,2026-06-28T22:54:56.925792,1.00269738,.00032412,0.0276,27.5858,76.6440,196.5435,0,U,40505,999,4112,0,0,0
BEIDOU-3S IGSO-1S,2015-019A,2026-06-27T19:18:18.518400,1.00249344,.00390983,49.1741,295.3331,191.8080,168.8013,0,U,40549,999,4118,0,-.163E-5,0
THOR 7,2015-022A,2026-06-28T22:43:20.040672,1.00272123,.00026996,0.0256,103.2641,350.6821,163.2590,0,U,40613,999,4093,0,.3E-7,0
TURKMENALEM52E/MONACOSAT,2015-023A,2026-06-28T22:58:19.102656,1.00270666,.00030469,0.0278,73.8741,15.0406,224.7267,0,U,40617,999,4096,0,.115E-5,0
DIRECTV 15,2015-026A,2026-06-28T22:14:08.715264,1.00273103,.00004361,0.0147,55.8050,357.6772,94.2008,0,U,40663,999,4058,0,-.91E-6,0
SKY MEXICO-1,2015-026B,2026-06-28T22:21:00.557280,1.00269217,.00026634,0.0286,27.3530,89.1430,56.9844,0,U,40664,999,4057,0,0,0
METEOSAT-11 (MSG-4),2015-034A,2026-06-28T21:03:32.234688,1.00266734,.00022291,3.2298,71.0380,347.7358,183.4638,0,U,40732,999,733,0,.7E-6,0
STAR ONE C4,2015-034B,2026-06-28T13:50:16.029024,1.00270447,.00021452,0.0230,340.8856,91.8974,341.4568,0,U,40733,999,4012,0,-.253E-5,0
WGS F7 (USA 263),2015-036A,2026-06-28T20:08:01.545792,1.00274700,.0000776,0.0431,58.4314,128.9795,206.4997,0,U,40746,999,3998,0,0,0
INTELSAT 34 (IS-34),2015-039A,2026-06-28T16:27:19.797984,1.00271838,.00006891,0.0117,356.8645,30.4825,80.7691,0,U,40874,999,3975,0,-.274E-5,0
EUTELSAT 8 WEST B,2015-039B,2026-06-28T22:41:12.744096,1.00271772,.00037298,0.0643,11.9056,81.9427,155.4850,0,U,40875,999,3977,0,-.54E-6,0
GSAT-6,2015-041A,2026-06-28T23:07:03.266400,1.00270382,.00030961,1.9489,82.4496,7.9105,255.9746,0,U,40880,999,3971,0,-.15E-5,0
INMARSAT 5-F3,2015-042A,2026-06-28T15:04:39.838368,1.00269137,.00004742,0.0187,22.9932,100.3806,199.1051,0,U,40882,999,3968,0,.61E-6,0
MUOS-4,2015-044A,2026-06-28T22:18:42.664608,1.00272373,.00577076,4.3510,42.3121,3.1113,281.2580,0,U,40887,999,3967,0,-.85E-6,0
TJS-1,2015-046A,2026-06-28T21:44:58.358400,1.00270519,.00059291,0.3528,84.9004,6.7306,306.6285,0,U,40892,999,3968,0,-.145E-5,0
EXPRESS-AM8,2015-048A,2026-06-28T14:06:07.008768,1.00272112,.00004889,0.0170,333.2146,69.1617,71.8327,0,U,40895,999,3946,0,-.1E-5,0
BEIDOU-3S IGSO-2S,2015-053A,2026-06-28T23:16:41.401632,1.00257545,.00656677,49.2020,258.6412,193.1508,268.9330,0,U,40938,999,3947,0,-.99E-6,0
SKY MUSTER 1 (NBN1A),2015-054A,2026-06-28T17:56:49.291872,1.00271165,.00019892,0.0192,335.5969,118.1417,232.5562,0,U,40940,999,3937,0,-.267E-5,0
ARSAT 2,2015-054B,2026-06-28T22:20:23.116704,1.00271835,.00022572,0.0111,3.0798,84.0040,84.0354,0,U,40941,999,3942,0,-.213E-5,0
MORELOS 3,2015-056A,2026-06-28T22:11:16.490688,1.00272712,.00004751,3.1964,15.3726,2.5678,118.7964,0,U,40946,999,3940,0,-.34E-6,0
APSTAR-9,2015-059A,2026-06-28T23:24:01.639008,1.00273353,.00027259,0.0277,314.7246,221.7382,233.6150,0,U,40982,999,3923,0,-.254E-5,0
TURKSAT 4B,2015-060A,2026-06-28T22:57:41.662944,1.00273208,.00025205,0.0180,60.0015,33.9414,217.4754,0,U,40984,999,3921,0,.126E-5,0
ZHONGXING-2C,2015-063A,2026-06-28T23:13:02.692128,1.00273508,.00076406,0.3042,89.3237,95.2705,184.1719,0,U,41021,999,3909,0,-.313E-5,0
GSAT-15,2015-065A,2026-06-28T23:10:10.466688,1.00270378,.00045879,0.0463,262.5293,175.8219,279.7592,0,U,41028,999,3891,0,-.246E-5,0
BADR-7 (ARABSAT-6B),2015-065B,2026-06-28T14:17:40.660800,1.00274016,.00040459,0.0091,254.1574,300.4751,322.4618,0,U,41029,999,3888,0,.156E-5,0
